[
  {
    "OBJECT_NAME": "STARLINK-34790",
    "OBJECT_ID": "25212Q",
    "EPOCH": "2025-11-11T00:39:58.433760",
    "MEAN_MOTION": 15.30219172,
    "ECCENTRICITY": 9.78e-05,
    "INCLINATION": 53.1598,
    "RA_OF_ASC_NODE": 177.0053,
    "ARG_OF_PERICENTER": 77.4586,
    "MEAN_ANOMALY": 282.6524,
    "EPHEMERIS_TYPE": 0,
    "CLASSIFICATION_TYPE": "U",
    "NORAD_CAT_ID": 65690,
    "ELEMENT_SET_NO": 999,
    "REV_AT_EPOCH": 902,
    "BSTAR": 0.0012588,
    "MEAN_MOTION_DOT": 0.00037132,
    "MEAN_MOTION_DDOT": 0.0,
    "TLE_LINE1": "1 65690U 25212Q   25315.02775965  .00037132  00000+0  12588-2 0  9996",
    "TLE_LINE2": "2 65690  53.1598 177.0053 0000978  77.4586 282.6524 15.30219172  9024",
    "COMMENT": "Grouped by shell and plane from TLE"
  },
  {
    "OBJECT_NAME": "STARLINK-34691",
    "OBJECT_ID": "25212R",
    "EPOCH": "2025-11-11T00:42:01.619424",
    "MEAN_MOTION": 15.39702631,
    "ECCENTRICITY": 0.0001499,
    "INCLINATION": 53.1595,
    "RA_OF_ASC_NODE": 174.1212,
    "ARG_OF_PERICENTER": 90.1059,
    "MEAN_ANOMALY": 270.0117,
    "EPHEMERIS_TYPE": 0,
    "CLASSIFICATION_TYPE": "U",
    "NORAD_CAT_ID": 65691,
    "ELEMENT_SET_NO": 999,
    "REV_AT_EPOCH": 911,
    "BSTAR": 0.0015291,
    "MEAN_MOTION_DOT": 0.00061424,
    "MEAN_MOTION_DDOT": 0.0,
    "TLE_LINE1": "1 65691U 25212R   25315.02918541  .00061424  00000+0  15291-2 0  9991",
    "TLE_LINE2": "2 65691  53.1595 174.1212 0001499  90.1059 270.0117 15.39702631  9118",
    "COMMENT": "Grouped by shell and plane from TLE"
  },
  {
    "OBJECT_NAME": "STARLINK-34825",
    "OBJECT_ID": "25212S",
    "EPOCH": "2025-11-11T00:15:38.392992",
    "MEAN_MOTION": 15.30215206,
    "ECCENTRICITY": 0.0001059,
    "INCLINATION": 53.1611,
    "RA_OF_ASC_NODE": 176.8981,
    "ARG_OF_PERICENTER": 310.765,
    "MEAN_ANOMALY": 49.3258,
    "EPHEMERIS_TYPE": 0,
    "CLASSIFICATION_TYPE": "U",
    "NORAD_CAT_ID": 65692,
    "ELEMENT_SET_NO": 999,
    "REV_AT_EPOCH": 906,
    "BSTAR": 0.0011706,
    "MEAN_MOTION_DOT": 0.00034487,
    "MEAN_MOTION_DDOT": 0.0,
    "TLE_LINE1": "1 65692U 25212S   25315.01086103  .00034487  00000+0  11706-2 0  9997",
    "TLE_LINE2": "2 65692  53.1611 176.8981 0001059 310.7650  49.3258 15.30215206  9065",
    "COMMENT": "Grouped by shell and plane from TLE"
  },
  {
    "OBJECT_NAME": "STARLINK-35060",
    "OBJECT_ID": "25212T",
    "EPOCH": "2025-11-10T22:01:48.901440",
    "MEAN_MOTION": 15.39657481,
    "ECCENTRICITY": 6.32e-05,
    "INCLINATION": 53.16,
    "RA_OF_ASC_NODE": 174.8519,
    "ARG_OF_PERICENTER": 251.8405,
    "MEAN_ANOMALY": 108.2532,
    "EPHEMERIS_TYPE": 0,
    "CLASSIFICATION_TYPE": "U",
    "NORAD_CAT_ID": 65693,
    "ELEMENT_SET_NO": 999,
    "REV_AT_EPOCH": 909,
    "BSTAR": 0.0012046,
    "MEAN_MOTION_DOT": 0.00048146,
    "MEAN_MOTION_DDOT": 0.0,
    "TLE_LINE1": "1 65693U 25212T   25314.91792710  .00048146  00000+0  12046-2 0  9999",
    "TLE_LINE2": "2 65693  53.1600 174.8519 0000632 251.8405 108.2532 15.39657481  9095",
    "COMMENT": "Grouped by shell and plane from TLE"
  },
  {
    "OBJECT_NAME": "STARLINK-35204",
    "OBJECT_ID": "25212U",
    "EPOCH": "2025-11-11T02:04:54.225408",
    "MEAN_MOTION": 15.30214645,
    "ECCENTRICITY": 0.00012,
    "INCLINATION": 53.1596,
    "RA_OF_ASC_NODE": 176.6606,
    "ARG_OF_PERICENTER": 107.3123,
    "MEAN_ANOMALY": 252.8009,
    "EPHEMERIS_TYPE": 0,
    "CLASSIFICATION_TYPE": "U",
    "NORAD_CAT_ID": 65694,
    "ELEMENT_SET_NO": 999,
    "REV_AT_EPOCH": 909,
    "BSTAR": 0.00067053,
    "MEAN_MOTION_DOT": 0.00019561,
    "MEAN_MOTION_DDOT": 0.0,
    "TLE_LINE1": "1 65694U 25212U   25315.08673872  .00019561  00000+0  67053-3 0  9994",
    "TLE_LINE2": "2 65694  53.1596 176.6606 0001200 107.3123 252.8009 15.30214645  9098",
    "COMMENT": "Grouped by shell and plane from TLE"
  },
  {
    "OBJECT_NAME": "STARLINK-35221",
    "OBJECT_ID": "25212V",
    "EPOCH": "2025-11-11T00:01:58.685952",
    "MEAN_MOTION": 15.30222159,
    "ECCENTRICITY": 7.19e-05,
    "INCLINATION": 53.1594,
    "RA_OF_ASC_NODE": 176.8393,
    "ARG_OF_PERICENTER": 112.9136,
    "MEAN_ANOMALY": 247.1941,
    "EPHEMERIS_TYPE": 0,
    "CLASSIFICATION_TYPE": "U",
    "NORAD_CAT_ID": 65695,
    "ELEMENT_SET_NO": 999,
    "REV_AT_EPOCH": 908,
    "BSTAR": 0.0013075,
    "MEAN_MOTION_DOT": 0.00038593,
    "MEAN_MOTION_DDOT": 0.0,
    "TLE_LINE1": "1 65695U 25212V   25315.00137368  .00038593  00000+0  13075-2 0  9992",
    "TLE_LINE2": "2 65695  53.1594 176.8393 0000719 112.9136 247.1941 15.30222159  9082",
    "COMMENT": "Grouped by shell and plane from TLE"
  },
  {
    "OBJECT_NAME": "STARLINK-34734",
    "OBJECT_ID": "25212W",
    "EPOCH": "2025-11-10T23:43:44.112000",
    "MEAN_MOTION": 15.30200646,
    "ECCENTRICITY": 0.0001128,
    "INCLINATION": 53.1559,
    "RA_OF_ASC_NODE": 176.7594,
    "ARG_OF_PERICENTER": 98.2114,
    "MEAN_ANOMALY": 261.9015,
    "EPHEMERIS_TYPE": 0,
    "CLASSIFICATION_TYPE": "U",
    "NORAD_CAT_ID": 65696,
    "ELEMENT_SET_NO": 999,
    "REV_AT_EPOCH": 907,
    "BSTAR": 0.0018328,
    "MEAN_MOTION_DOT": 0.00054321,
    "MEAN_MOTION_DDOT": 0.0,
    "TLE_LINE1": "1 65696U 25212W   25314.98870500  .00054321  00000+0  18328-2 0  9994",
    "TLE_LINE2": "2 65696  53.1559 176.7594 0001128  98.2114 261.9015 15.30200646  9075",
    "COMMENT": "Grouped by shell and plane from TLE"
  },
  {
    "OBJECT_NAME": "STARLINK-35113",
    "OBJECT_ID": "25212X",
    "EPOCH": "2025-11-11T01:02:35.889216",
    "MEAN_MOTION": 15.30241058,
    "ECCENTRICITY": 7.98e-05,
    "INCLINATION": 53.1565,
    "RA_OF_ASC_NODE": 176.3878,
    "ARG_OF_PERICENTER": 158.8149,
    "MEAN_ANOMALY": 201.2885,
    "EPHEMERIS_TYPE": 0,
    "CLASSIFICATION_TYPE": "U",
    "NORAD_CAT_ID": 65697,
    "ELEMENT_SET_NO": 999,
    "REV_AT_EPOCH": 908,
    "BSTAR": 0.0017906,
    "MEAN_MOTION_DOT": 0.0005312,
    "MEAN_MOTION_DDOT": 0.0,
    "TLE_LINE1": "1 65697U 25212X   25315.04347094  .00053120  00000+0  17906-2 0  9997",
    "TLE_LINE2": "2 65697  53.1565 176.3878 0000798 158.8149 201.2885 15.30241058  9082",
    "COMMENT": "Grouped by shell and plane from TLE"
  },
  {
    "OBJECT_NAME": "STARLINK-35090",
    "OBJECT_ID": "25212Y",
    "EPOCH": "2025-11-11T00:23:14.432064",
    "MEAN_MOTION": 15.30229998,
    "ECCENTRICITY": 0.0001814,
    "INCLINATION": 53.1598,
    "RA_OF_ASC_NODE": 176.9309,
    "ARG_OF_PERICENTER": 252.0741,
    "MEAN_ANOMALY": 108.0062,
    "EPHEMERIS_TYPE": 0,
    "CLASSIFICATION_TYPE": "U",
    "NORAD_CAT_ID": 65698,
    "ELEMENT_SET_NO": 999,
    "REV_AT_EPOCH": 907,
    "BSTAR": 0.0015067,
    "MEAN_MOTION_DOT": 0.00044576,
    "MEAN_MOTION_DDOT": 0.0,
    "TLE_LINE1": "1 65698U 25212Y   25315.01613926  .00044576  00000+0  15067-2 0  9996",
    "TLE_LINE2": "2 65698  53.1598 176.9309 0001814 252.0741 108.0062 15.30229998  9078",
    "COMMENT": "Grouped by shell and plane from TLE"
  },
  {
    "OBJECT_NAME": "STARLINK-35086",
    "OBJECT_ID": "25212Z",
    "EPOCH": "2025-11-11T01:01:13.473984",
    "MEAN_MOTION": 15.30241331,
    "ECCENTRICITY": 0.0002437,
    "INCLINATION": 53.1599,
    "RA_OF_ASC_NODE": 177.0988,
    "ARG_OF_PERICENTER": 244.7949,
    "MEAN_ANOMALY": 115.2799,
    "EPHEMERIS_TYPE": 0,
    "CLASSIFICATION_TYPE": "U",
    "NORAD_CAT_ID": 65699,
    "ELEMENT_SET_NO": 999,
    "REV_AT_EPOCH": 902,
    "BSTAR": 0.0014097,
    "MEAN_MOTION_DOT": 0.00041683,
    "MEAN_MOTION_DDOT": 0.0,
    "TLE_LINE1": "1 65699U 25212Z   25315.04251706  .00041683  00000+0  14097-2 0  9992",
    "TLE_LINE2": "2 65699  53.1599 177.0988 0002437 244.7949 115.2799 15.30241331  9022",
    "COMMENT": "Grouped by shell and plane from TLE"
  },
  {
    "OBJECT_NAME": "STARLINK-35101",
    "OBJECT_ID": "25212AA",
    "EPOCH": "2025-11-11T02:44:15.101952",
    "MEAN_MOTION": 15.302242,
    "ECCENTRICITY": 0.0001288,
    "INCLINATION": 53.1538,
    "RA_OF_ASC_NODE": 176.1181,
    "ARG_OF_PERICENTER": 76.0086,
    "MEAN_ANOMALY": 284.1058,
    "EPHEMERIS_TYPE": 0,
    "CLASSIFICATION_TYPE": "U",
    "NORAD_CAT_ID": 65700,
    "ELEMENT_SET_NO": 999,
    "REV_AT_EPOCH": 904,
    "BSTAR": 0.00089916,
    "MEAN_MOTION_DOT": 0.00026386,
    "MEAN_MOTION_DDOT": 0.0,
    "TLE_LINE1": "1 65700U 25212AA  25315.11406368  .00026386  00000+0  89916-3 0  9995",
    "TLE_LINE2": "2 65700  53.1538 176.1181 0001288  76.0086 284.1058 15.30224200  9046",
    "COMMENT": "Grouped by shell and plane from TLE"
  },
  {
    "OBJECT_NAME": "STARLINK-35046",
    "OBJECT_ID": "25212AB",
    "EPOCH": "2025-11-10T22:55:16.807296",
    "MEAN_MOTION": 15.3020083,
    "ECCENTRICITY": 4.13e-05,
    "INCLINATION": 53.1667,
    "RA_OF_ASC_NODE": 177.2611,
    "ARG_OF_PERICENTER": 296.4536,
    "MEAN_ANOMALY": 63.6422,
    "EPHEMERIS_TYPE": 0,
    "CLASSIFICATION_TYPE": "U",
    "NORAD_CAT_ID": 65701,
    "ELEMENT_SET_NO": 999,
    "REV_AT_EPOCH": 906,
    "BSTAR": 0.0011295,
    "MEAN_MOTION_DOT": 0.00033245,
    "MEAN_MOTION_DDOT": 0.0,
    "TLE_LINE1": "1 65701U 25212AB  25314.95505564  .00033245  00000+0  11295-2 0  9991",
    "TLE_LINE2": "2 65701  53.1667 177.2611 0000413 296.4536  63.6422 15.30200830  9067",
    "COMMENT": "Grouped by shell and plane from TLE"
  },
  {
    "OBJECT_NAME": "STARLINK-35075",
    "OBJECT_ID": "25212AC",
    "EPOCH": "2025-11-11T00:00:27.648864",
    "MEAN_MOTION": 15.30205969,
    "ECCENTRICITY": 9.07e-05,
    "INCLINATION": 53.1592,
    "RA_OF_ASC_NODE": 176.8312,
    "ARG_OF_PERICENTER": 108.9874,
    "MEAN_ANOMALY": 251.1225,
    "EPHEMERIS_TYPE": 0,
    "CLASSIFICATION_TYPE": "U",
    "NORAD_CAT_ID": 65702,
    "ELEMENT_SET_NO": 999,
    "REV_AT_EPOCH": 907,
    "BSTAR": 0.0010609,
    "MEAN_MOTION_DOT": 0.00031199,
    "MEAN_MOTION_DDOT": 0.0,
    "TLE_LINE1": "1 65702U 25212AC  25315.00032001  .00031199  00000+0  10609-2 0  9994",
    "TLE_LINE2": "2 65702  53.1592 176.8312 0000907 108.9874 251.1225 15.30205969  9072",
    "COMMENT": "Grouped by shell and plane from TLE"
  }
]